[{"OBJECT_NAME":"JILIN-1 KUANFU-01B","OBJECT_ID":"2021-061A","EPOCH":"2026-03-09T22:54:34.499808","MEAN_MOTION":15.09454544,"ECCENTRICITY":0.00089006,"INCLINATION":97.5272,"RA_OF_ASC_NODE":146.9765,"ARG_OF_PERICENTER":57.5197,"MEAN_ANOMALY":302.6891,"EPHEMERIS_TYPE":0,"CLASSIFICATION_TYPE":"U","NORAD_CAT_ID":49003,"ELEMENT_SET_NO":999,"REV_AT_EPOCH":25837,"BSTAR":0.00023291265,"MEAN_MOTION_DOT":3.668e-5,"MEAN_MOTION_DDOT":0},{"OBJECT_NAME":"STARLINK-4748","OBJECT_ID":"2022-114F","EPOCH":"2026-03-09T19:56:04.587360","MEAN_MOTION":15.0883633,"ECCENTRICITY":0.00017416,"INCLINATION":53.2169,"RA_OF_ASC_NODE":258.4753,"ARG_OF_PERICENTER":101.786,"MEAN_ANOMALY":258.3328,"EPHEMERIS_TYPE":0,"CLASSIFICATION_TYPE":"U","NORAD_CAT_ID":53823,"ELEMENT_SET_NO":999,"REV_AT_EPOCH":19348,"BSTAR":5.835445e-6,"MEAN_MOTION_DOT":-1.95e-6,"MEAN_MOTION_DDOT":0}]
